[
  {
    "OBJECT_NAME": "STARLINK-5943",
    "OBJECT_ID": "23042AG",
    "EPOCH": "2025-11-11T01:29:00.797856",
    "MEAN_MOTION": 15.02538293,
    "ECCENTRICITY": 0.0001458,
    "INCLINATION": 43.0036,
    "RA_OF_ASC_NODE": 327.8609,
    "ARG_OF_PERICENTER": 274.3302,
    "MEAN_ANOMALY": 85.7373,
    "EPHEMERIS_TYPE": 0,
    "CLASSIFICATION_TYPE": "U",
    "NORAD_CAT_ID": 56016,
    "ELEMENT_SET_NO": 999,
    "REV_AT_EPOCH": 14521,
    "BSTAR": 4.5133e-05,
    "MEAN_MOTION_DOT": 4.06e-06,
    "MEAN_MOTION_DDOT": 0.0,
    "TLE_LINE1": "1 56016U 23042AG  25315.06181479  .00000406  00000+0  45133-4 0  9990",
    "TLE_LINE2": "2 56016  43.0036 327.8609 0001458 274.3302  85.7373 15.02538293145214",
    "COMMENT": "Grouped by shell and plane from TLE"
  },
  {
    "OBJECT_NAME": "STARLINK-5934",
    "OBJECT_ID": "23042AH",
    "EPOCH": "2025-11-11T00:09:15.700608",
    "MEAN_MOTION": 15.02544102,
    "ECCENTRICITY": 0.00012,
    "INCLINATION": 43.0053,
    "RA_OF_ASC_NODE": 328.3089,
    "ARG_OF_PERICENTER": 266.6085,
    "MEAN_ANOMALY": 93.462,
    "EPHEMERIS_TYPE": 0,
    "CLASSIFICATION_TYPE": "U",
    "NORAD_CAT_ID": 56017,
    "ELEMENT_SET_NO": 999,
    "REV_AT_EPOCH": 14520,
    "BSTAR": 0.0001751,
    "MEAN_MOTION_DOT": 2.163e-05,
    "MEAN_MOTION_DDOT": 0.0,
    "TLE_LINE1": "1 56017U 23042AH  25315.00643172  .00002163  00000+0  17510-3 0  9997",
    "TLE_LINE2": "2 56017  43.0053 328.3089 0001200 266.6085  93.4620 15.02544102145205",
    "COMMENT": "Grouped by shell and plane from TLE"
  },
  {
    "OBJECT_NAME": "STARLINK-5945",
    "OBJECT_ID": "23042AJ",
    "EPOCH": "2025-11-11T01:30:36.783936",
    "MEAN_MOTION": 15.02538505,
    "ECCENTRICITY": 0.0001408,
    "INCLINATION": 43.0039,
    "RA_OF_ASC_NODE": 327.8706,
    "ARG_OF_PERICENTER": 272.785,
    "MEAN_ANOMALY": 87.2831,
    "EPHEMERIS_TYPE": 0,
    "CLASSIFICATION_TYPE": "U",
    "NORAD_CAT_ID": 56018,
    "ELEMENT_SET_NO": 999,
    "REV_AT_EPOCH": 14521,
    "BSTAR": 4.0185e-05,
    "MEAN_MOTION_DOT": 3.39e-06,
    "MEAN_MOTION_DDOT": 0.0,
    "TLE_LINE1": "1 56018U 23042AJ  25315.06292574  .00000339  00000+0  40185-4 0  9998",
    "TLE_LINE2": "2 56018  43.0039 327.8706 0001408 272.7850  87.2831 15.02538505145214",
    "COMMENT": "Grouped by shell and plane from TLE"
  },
  {
    "OBJECT_NAME": "STARLINK-5949",
    "OBJECT_ID": "23042AK",
    "EPOCH": "2025-11-11T01:49:47.842752",
    "MEAN_MOTION": 15.02544513,
    "ECCENTRICITY": 0.0001004,
    "INCLINATION": 43.0036,
    "RA_OF_ASC_NODE": 327.971,
    "ARG_OF_PERICENTER": 259.5294,
    "MEAN_ANOMALY": 100.5436,
    "EPHEMERIS_TYPE": 0,
    "CLASSIFICATION_TYPE": "U",
    "NORAD_CAT_ID": 56019,
    "ELEMENT_SET_NO": 999,
    "REV_AT_EPOCH": 14521,
    "BSTAR": 2.3259e-05,
    "MEAN_MOTION_DOT": 1.11e-06,
    "MEAN_MOTION_DDOT": 0.0,
    "TLE_LINE1": "1 56019U 23042AK  25315.07624818  .00000111  00000+0  23259-4 0  9991",
    "TLE_LINE2": "2 56019  43.0036 327.9710 0001004 259.5294 100.5436 15.02544513145211",
    "COMMENT": "Grouped by shell and plane from TLE"
  },
  {
    "OBJECT_NAME": "STARLINK-5912",
    "OBJECT_ID": "23042AL",
    "EPOCH": "2025-11-11T01:35:24.503712",
    "MEAN_MOTION": 15.02525785,
    "ECCENTRICITY": 0.0001364,
    "INCLINATION": 43.0054,
    "RA_OF_ASC_NODE": 327.896,
    "ARG_OF_PERICENTER": 261.981,
    "MEAN_ANOMALY": 98.0877,
    "EPHEMERIS_TYPE": 0,
    "CLASSIFICATION_TYPE": "U",
    "NORAD_CAT_ID": 56020,
    "ELEMENT_SET_NO": 999,
    "REV_AT_EPOCH": 14521,
    "BSTAR": 0.00011464000000000001,
    "MEAN_MOTION_DOT": 1.345e-05,
    "MEAN_MOTION_DDOT": 0.0,
    "TLE_LINE1": "1 56020U 23042AL  25315.06625583  .00001345  00000+0  11464-3 0  9996",
    "TLE_LINE2": "2 56020  43.0054 327.8960 0001364 261.9810  98.0877 15.02525785145219",
    "COMMENT": "Grouped by shell and plane from TLE"
  },
  {
    "OBJECT_NAME": "STARLINK-5907",
    "OBJECT_ID": "23042AM",
    "EPOCH": "2025-11-11T01:40:12.443808",
    "MEAN_MOTION": 15.025347,
    "ECCENTRICITY": 0.0001157,
    "INCLINATION": 43.0043,
    "RA_OF_ASC_NODE": 327.9208,
    "ARG_OF_PERICENTER": 276.014,
    "MEAN_ANOMALY": 84.0571,
    "EPHEMERIS_TYPE": 0,
    "CLASSIFICATION_TYPE": "U",
    "NORAD_CAT_ID": 56021,
    "ELEMENT_SET_NO": 999,
    "REV_AT_EPOCH": 14521,
    "BSTAR": 0.00010084,
    "MEAN_MOTION_DOT": 1.159e-05,
    "MEAN_MOTION_DDOT": 0.0,
    "TLE_LINE1": "1 56021U 23042AM  25315.06958847  .00001159  00000+0  10084-3 0  9999",
    "TLE_LINE2": "2 56021  43.0043 327.9208 0001157 276.0140  84.0571 15.02534700145210",
    "COMMENT": "Grouped by shell and plane from TLE"
  },
  {
    "OBJECT_NAME": "STARLINK-5783",
    "OBJECT_ID": "23042AN",
    "EPOCH": "2025-11-11T07:39:08.716896",
    "MEAN_MOTION": 15.02531289,
    "ECCENTRICITY": 0.0001379,
    "INCLINATION": 43.0052,
    "RA_OF_ASC_NODE": 326.3502,
    "ARG_OF_PERICENTER": 275.4821,
    "MEAN_ANOMALY": 84.5864,
    "EPHEMERIS_TYPE": 0,
    "CLASSIFICATION_TYPE": "U",
    "NORAD_CAT_ID": 56022,
    "ELEMENT_SET_NO": 999,
    "REV_AT_EPOCH": 14525,
    "BSTAR": 2.1734000000000002e-06,
    "MEAN_MOTION_DOT": -1.74e-06,
    "MEAN_MOTION_DDOT": 0.0,
    "TLE_LINE1": "1 56022U 23042AN  25315.31885089 -.00000174  00000+0  21734-5 0  9998",
    "TLE_LINE2": "2 56022  43.0052 326.3502 0001379 275.4821  84.5864 15.02531289145259",
    "COMMENT": "Grouped by shell and plane from TLE"
  },
  {
    "OBJECT_NAME": "STARLINK-5771",
    "OBJECT_ID": "23042AP",
    "EPOCH": "2025-11-11T02:59:56.874912",
    "MEAN_MOTION": 15.02532578,
    "ECCENTRICITY": 0.0001106,
    "INCLINATION": 43.0026,
    "RA_OF_ASC_NODE": 327.4715,
    "ARG_OF_PERICENTER": 256.9299,
    "MEAN_ANOMALY": 103.142,
    "EPHEMERIS_TYPE": 0,
    "CLASSIFICATION_TYPE": "U",
    "NORAD_CAT_ID": 56023,
    "ELEMENT_SET_NO": 999,
    "REV_AT_EPOCH": 14522,
    "BSTAR": 4.3332e-05,
    "MEAN_MOTION_DOT": 3.82e-06,
    "MEAN_MOTION_DDOT": 0.0,
    "TLE_LINE1": "1 56023U 23042AP  25315.12496383  .00000382  00000+0  43332-4 0  9990",
    "TLE_LINE2": "2 56023  43.0026 327.4715 0001106 256.9299 103.1420 15.02532578145225",
    "COMMENT": "Grouped by shell and plane from TLE"
  },
  {
    "OBJECT_NAME": "STARLINK-5772",
    "OBJECT_ID": "23042AQ",
    "EPOCH": "2025-11-11T07:24:45.024480",
    "MEAN_MOTION": 15.02538347,
    "ECCENTRICITY": 0.0001292,
    "INCLINATION": 43.0054,
    "RA_OF_ASC_NODE": 326.2745,
    "ARG_OF_PERICENTER": 269.0129,
    "MEAN_ANOMALY": 91.0566,
    "EPHEMERIS_TYPE": 0,
    "CLASSIFICATION_TYPE": "U",
    "NORAD_CAT_ID": 56024,
    "ELEMENT_SET_NO": 999,
    "REV_AT_EPOCH": 14525,
    "BSTAR": 4.529e-05,
    "MEAN_MOTION_DOT": 4.08e-06,
    "MEAN_MOTION_DDOT": 0.0,
    "TLE_LINE1": "1 56024U 23042AQ  25315.30885445  .00000408  00000+0  45290-4 0  9996",
    "TLE_LINE2": "2 56024  43.0054 326.2745 0001292 269.0129  91.0566 15.02538347145259",
    "COMMENT": "Grouped by shell and plane from TLE"
  },
  {
    "OBJECT_NAME": "STARLINK-5766",
    "OBJECT_ID": "23042AR",
    "EPOCH": "2025-11-11T02:04:10.428384",
    "MEAN_MOTION": 15.02538811,
    "ECCENTRICITY": 0.0001072,
    "INCLINATION": 43.0033,
    "RA_OF_ASC_NODE": 328.0353,
    "ARG_OF_PERICENTER": 273.8787,
    "MEAN_ANOMALY": 86.1933,
    "EPHEMERIS_TYPE": 0,
    "CLASSIFICATION_TYPE": "U",
    "NORAD_CAT_ID": 56025,
    "ELEMENT_SET_NO": 999,
    "REV_AT_EPOCH": 14521,
    "BSTAR": 0.00017677,
    "MEAN_MOTION_DOT": 2.185e-05,
    "MEAN_MOTION_DDOT": 0.0,
    "TLE_LINE1": "1 56025U 23042AR  25315.08623181  .00002185  00000+0  17677-3 0  9990",
    "TLE_LINE2": "2 56025  43.0033 328.0353 0001072 273.8787  86.1933 15.02538811145216",
    "COMMENT": "Grouped by shell and plane from TLE"
  },
  {
    "OBJECT_NAME": "STARLINK-5770",
    "OBJECT_ID": "23042AS",
    "EPOCH": "2025-11-11T07:37:34.170240",
    "MEAN_MOTION": 15.02529905,
    "ECCENTRICITY": 9.68e-05,
    "INCLINATION": 43.0047,
    "RA_OF_ASC_NODE": 326.3406,
    "ARG_OF_PERICENTER": 270.7514,
    "MEAN_ANOMALY": 89.3218,
    "EPHEMERIS_TYPE": 0,
    "CLASSIFICATION_TYPE": "U",
    "NORAD_CAT_ID": 56026,
    "ELEMENT_SET_NO": 999,
    "REV_AT_EPOCH": 14525,
    "BSTAR": 0.0,
    "MEAN_MOTION_DOT": -2.94e-06,
    "MEAN_MOTION_DDOT": 0.0,
    "TLE_LINE1": "1 56026U 23042AS  25315.31775660 -.00000294  00000+0 -67103-5 0  9999",
    "TLE_LINE2": "2 56026  43.0047 326.3406 0000968 270.7514  89.3218 15.02529905145258",
    "COMMENT": "Grouped by shell and plane from TLE"
  },
  {
    "OBJECT_NAME": "STARLINK-5777",
    "OBJECT_ID": "23042AT",
    "EPOCH": "2025-11-11T01:19:25.749696",
    "MEAN_MOTION": 15.02531482,
    "ECCENTRICITY": 0.0001342,
    "INCLINATION": 43.0038,
    "RA_OF_ASC_NODE": 327.8106,
    "ARG_OF_PERICENTER": 268.6115,
    "MEAN_ANOMALY": 91.4574,
    "EPHEMERIS_TYPE": 0,
    "CLASSIFICATION_TYPE": "U",
    "NORAD_CAT_ID": 56027,
    "ELEMENT_SET_NO": 999,
    "REV_AT_EPOCH": 14521,
    "BSTAR": 0.0,
    "MEAN_MOTION_DOT": -6.22e-06,
    "MEAN_MOTION_DDOT": 0.0,
    "TLE_LINE1": "1 56027U 23042AT  25315.05515914 -.00000622  00000+0 -30989-4 0  9991",
    "TLE_LINE2": "2 56027  43.0038 327.8106 0001342 268.6115  91.4574 15.02531482145210",
    "COMMENT": "Grouped by shell and plane from TLE"
  },
  {
    "OBJECT_NAME": "STARLINK-5779",
    "OBJECT_ID": "23042AU",
    "EPOCH": "2025-11-11T02:31:10.358400",
    "MEAN_MOTION": 15.02542567,
    "ECCENTRICITY": 0.0001109,
    "INCLINATION": 43.0049,
    "RA_OF_ASC_NODE": 327.3218,
    "ARG_OF_PERICENTER": 258.1417,
    "MEAN_ANOMALY": 101.9301,
    "EPHEMERIS_TYPE": 0,
    "CLASSIFICATION_TYPE": "U",
    "NORAD_CAT_ID": 56028,
    "ELEMENT_SET_NO": 999,
    "REV_AT_EPOCH": 14522,
    "BSTAR": 0.00014569,
    "MEAN_MOTION_DOT": 1.765e-05,
    "MEAN_MOTION_DDOT": 0.0,
    "TLE_LINE1": "1 56028U 23042AU  25315.10498100  .00001765  00000+0  14569-3 0  9997",
    "TLE_LINE2": "2 56028  43.0049 327.3218 0001109 258.1417 101.9301 15.02542567145224",
    "COMMENT": "Grouped by shell and plane from TLE"
  }
]